$$SOE
2460721.500000000, A.D. 2025-Feb-15 00:00:00.0000, -1.166702333285638E+08, -2.454871647205266E+08, -8.371530952164045E+07,
2460728.500000000, A.D. 2025-Feb-22 00:00:00.0000, -1.042955622429777E+08, -2.495253310034143E+08, -8.530600817884840E+07,
2460735.500000000, A.D. 2025-Mar-01 00:00:00.0000, -9.169894839242326E+07, -2.530324628391796E+08, -8.671514007568550E+07,
2460742.500000000, A.D. 2025-Mar-08 00:00:00.0000, -7.890549934125137E+07, -2.559964046892385E+08, -8.793809878043908E+07,
2460749.500000000, A.D. 2025-Mar-15 00:00:00.0000, -6.594120522695134E+07, -2.584060142292851E+08, -8.897061800744432E+07,
2460756.500000000, A.D. 2025-Mar-22 00:00:00.0000, -5.283290269645812E+07, -2.602512264535686E+08, -8.980879440493861E+07,
2460763.500000000, A.D. 2025-Mar-29 00:00:00.0000, -3.960823170519251E+07, -2.615231198199146E+08, -9.044911066164064E+07,
2460770.500000000, A.D. 2025-Apr-05 00:00:00.0000, -2.629558463174680E+07, -2.622139808293184E+08, -9.088845854736085E+07,
2460777.500000000, A.D. 2025-Apr-12 00:00:00.0000, -1.292404945407368E+07, -2.623173664235565E+08, -9.112416152810067E+07,
2460784.500000000, A.D. 2025-Apr-19 00:00:00.0000, 4.766529581988847E+05, -2.618281645284733E+08, -9.115399682101004E+07,
2460791.500000000, A.D. 2025-Apr-26 00:00:00.0000, 1.387623778333895E+07, -2.607426523560234E+08, -9.097621672782695E+07,
2460798.500000000, A.D. 2025-May-03 00:00:00.0000, 2.724393154558695E+07, -2.590585518231668E+08, -9.058956904001586E+07,
2460805.500000000, A.D. 2025-May-10 00:00:00.0000, 4.054855374529671E+07, -2.567750814300317E+08, -8.999331629207964E+07,
2460812.500000000, A.D. 2025-May-17 00:00:00.0000, 5.375860472702698E+07, -2.538930039753910E+08, -8.918725364013676E+07,
2460819.500000000, A.D. 2025-May-24 00:00:00.0000, 6.684235973966490E+07, -2.504146694958648E+08, -8.817172515239516E+07,
2460826.500000000, A.D. 2025-May-31 00:00:00.0000, 7.976796929159716E+07, -2.463440524452142E+08, -8.694763828038014E+07,
2460833.500000000, A.D. 2025-Jun-07 00:00:00.0000, 9.250356499710248E+07, -2.416867812339939E+08, -8.551647612201995E+07,
2460840.500000000, A.D. 2025-Jun-14 00:00:00.0000, 1.050173680673555E+08, -2.364501601313291E+08, -8.388030706431118E+07,
2460847.500000000, A.D. 2025-Jun-21 00:00:00.0000, 1.172778011031252E+08, -2.306431861690716E+08, -8.204179195805041E+07,
2460854.500000000, A.D. 2025-Jun-28 00:00:00.0000, 1.292536056699728E+08, -2.242765587171102E+08, -8.000418877551605E+07,
2460861.500000000, A.D. 2025-Jul-05 00:00:00.0000, 1.409139633920190E+08, -2.173626790823254E+08, -7.777135426970680E+07,
2460868.500000000, A.D. 2025-Jul-12 00:00:00.0000, 1.522286185321504E+08, -2.099156405162727E+08, -7.534774244010124E+07,
2460875.500000000, A.D. 2025-Jul-19 00:00:00.0000, 1.631680013315153E+08, -2.019512088619199E+08, -7.273839973485565E+07,
2460882.500000000, A.D. 2025-Jul-26 00:00:00.0000, 1.737033513421545E+08, -1.934867936408427E+08, -6.994895690558350E+07,
2460889.500000000, A.D. 2025-Aug-02 00:00:00.0000, 1.838068397939553E+08, -1.845414094082692E+08, -6.698561744482404E+07,
2460896.500000000, A.D. 2025-Aug-09 00:00:00.0000, 1.934516899559026E+08, -1.751356273524137E+08, -6.385514257073279E+07,
2460903.500000000, A.D. 2025-Aug-16 00:00:00.0000, 2.026122944787690E+08, -1.652915172743528E+08, -6.056483276749464E+07,
2460910.500000000, A.D. 2025-Aug-23 00:00:00.0000, 2.112643289230248E+08, -1.550325801152688E+08, -5.712250594486239E+07,
2460917.500000000, A.D. 2025-Aug-30 00:00:00.0000, 2.193848607408334E+08, -1.443836706261389E+08, -5.353647227890997E+07,
2460924.500000000, A.D. 2025-Sep-06 00:00:00.0000, 2.269524512697200E+08, -1.333709096223028E+08, -4.981550566508511E+07,
2460931.500000000, A.D. 2025-Sep-13 00:00:00.0000, 2.339472480864090E+08, -1.220215888669752E+08, -4.596881202301429E+07,
2460938.500000000, A.D. 2025-Sep-20 00:00:00.0000, 2.403510700815345E+08, -1.103640708999469E+08, -4.200599512187807E+07,
2460945.500000000, A.D. 2025-Sep-27 00:00:00.0000, 2.461474854943659E+08, -9.842768148618898E+07, -3.793702004282036E+07,
2460952.500000000, A.D. 2025-Oct-04 00:00:00.0000, 2.513218801737009E+08, -8.624259503454432E+07, -3.377217435219887E+07,
2460959.500000000, A.D. 2025-Oct-11 00:00:00.0000, 2.558615150836581E+08, -7.383971489694870E+07, -2.952202735293929E+07,
2460966.500000000, A.D. 2025-Oct-18 00:00:00.0000, 2.597555728527378E+08, -6.125054984708768E+07, -2.519738780597604E+07,
2460973.500000000, A.D. 2025-Oct-25 00:00:00.0000, 2.629951931536988E+08, -4.850708779230680E+07, -2.080926049393359E+07,
2460980.500000000, A.D. 2025-Nov-01 00:00:00.0000, 2.655734967420138E+08, -3.564166779241819E+07, -1.636880200214987E+07,
2460987.500000000, A.D. 2025-Nov-08 00:00:00.0000, 2.674855981193671E+08, -2.268685151451621E+07, -1.188727610209574E+07,
2460994.500000000, A.D. 2025-Nov-15 00:00:00.0000, 2.687286070415023E+08, -9.675295274456877E+06, -7.376009134768495E+06,
2461001.500000000, A.D. 2025-Nov-22 00:00:00.0000, 2.693016194682150E+08, 3.360376489154223E+06, -2.846345785885236E+06,
2461008.500000000, A.D. 2025-Nov-29 00:00:00.0000, 2.692056981232487E+08, 1.638769643643918E+07, 1.690394493563841E+06,
2461015.500000000, A.D. 2025-Dec-06 00:00:00.0000, 2.684438408580173E+08, 2.937447715958844E+07, 6.222960278400784E+06,
2461022.500000000, A.D. 2025-Dec-13 00:00:00.0000, 2.670209378309730E+08, 4.228892736048094E+07, 1.074020954005593E+07,
2461029.500000000, A.D. 2025-Dec-20 00:00:00.0000, 2.649437216398402E+08, 5.509976158764507E+07, 1.523114907052886E+07,
2461036.500000000, A.D. 2025-Dec-27 00:00:00.0000, 2.622207100601830E+08, 6.777630542029090E+07, 1.968497201138873E+07,
2461043.500000000, A.D. 2026-Jan-03 00:00:00.0000, 2.588621407325665E+08, 8.028859487878272E+07, 2.409109334736055E+07,
2461050.500000000, A.D. 2026-Jan-10 00:00:00.0000, 2.548798987581140E+08, 9.260746887954503E+07, 2.843918311073088E+07,
2461057.500000000, A.D. 2026-Jan-17 00:00:00.0000, 2.502874383155268E+08, 1.047046542456686E+08, 3.271919711603520E+07,
2461064.500000000, A.D. 2026-Jan-24 00:00:00.0000, 2.450996992736494E+08, 1.165528430048384E+08, 3.692140510459656E+07,
2461071.500000000, A.D. 2026-Jan-31 00:00:00.0000, 2.393330197205183E+08, 1.281257617800910E+08, 4.103641621706827E+07,
2461078.500000000, A.D. 2026-Feb-07 00:00:00.0000, 2.330050453563470E+08, 1.393982331293710E+08, 4.505520173977292E+07,
2461085.500000000, A.D. 2026-Feb-14 00:00:00.0000, 2.261346368681432E+08, 1.503462288265157E+08, 4.896911509077870E+07,
2461092.500000000, A.D. 2026-Feb-21 00:00:00.0000, 2.187417765056995E+08, 1.609469157490945E+08, 5.276990907799537E+07,
2461099.500000000, A.D. 2026-Feb-28 00:00:00.0000, 2.108474735467298E+08, 1.711786956845325E+08, 5.644975066570254E+07,
2461106.500000000, A.D. 2026-Mar-07 00:00:00.0000, 2.024736673107044E+08, 1.810212373526869E+08, 6.000123335283214E+07,
2461113.500000000, A.D. 2026-Mar-14 00:00:00.0000, 1.936431311931064E+08, 1.904554986211520E+08, 6.341738682409041E+07,
2461120.500000000, A.D. 2026-Mar-21 00:00:00.0000, 1.843793801264260E+08, 1.994637421388843E+08, 6.669168405847551E+07,
2461127.500000000, A.D. 2026-Mar-28 00:00:00.0000, 1.747065799956654E+08, 2.080295457824811E+08, 6.981804627908465E+07,
2461134.500000000, A.D. 2026-Apr-04 00:00:00.0000, 1.646494588708043E+08, 2.161378073545325E+08, 7.279084584369630E+07,
2461141.500000000, A.D. 2026-Apr-11 00:00:00.0000, 1.542332207253897E+08, 2.237747436150425E+08, 7.560490715560056E+07,
2461148.500000000, A.D. 2026-Apr-18 00:00:00.0000, 1.434834621358707E+08, 2.309278841101015E+08, 7.825550573263387E+07,
2461155.500000000, A.D. 2026-Apr-25 00:00:00.0000, 1.324260922949067E+08, 2.375860602935709E+08, 8.073836560111818E+07,
2461162.500000000, A.D. 2026-May-02 00:00:00.0000, 1.210872566072894E+08, 2.437393903833777E+08, 8.304965518176022E+07,
2461169.500000000, A.D. 2026-May-09 00:00:00.0000, 1.094932641734042E+08, 2.493792603409733E+08, 8.518598181445633E+07,
2461176.500000000, A.D. 2026-May-16 00:00:00.0000, 9.767051965917923E+07, 2.544983015542405E+08, 8.714438505323143E+07,
2461183.500000000, A.D. 2026-May-23 00:00:00.0000, 8.564545967590813E+07, 2.590903666774316E+08, 8.892232895941086E+07,
2461190.500000000, A.D. 2026-May-30 00:00:00.0000, 7.344449162138501E+07, 2.631505043521066E+08, 9.051769374719334E+07,
2461197.500000000, A.D. 2026-Jun-06 00:00:00.0000, 6.109393463670801E+07, 2.666749299125692E+08, 9.192876666811529E+07,
2461204.500000000, A.D. 2026-Jun-13 00:00:00.0000, 4.861996628506877E+07, 2.696609926576378E+08, 9.315423195022039E+07,
2461211.500000000, A.D. 2026-Jun-20 00:00:00.0000, 3.604857438364667E+07, 2.721071429677044E+08, 9.419316020330130E+07,
2461218.500000000, A.D. 2026-Jun-27 00:00:00.0000, 2.340551218712165E+07, 2.740128992389528E+08, 9.504499752596433E+07,
2461225.500000000, A.D. 2026-Jul-04 00:00:00.0000, 1.071625679312007E+07, 2.753788141498304E+08, 9.570955435284555E+07,
2461232.500000000, A.D. 2026-Jul-11 00:00:00.0000, -1.994029121559385E+06, 2.762064403945743E+08, 9.618699410271998E+07,
2461239.500000000, A.D. 2026-Jul-18 00:00:00.0000, -1.470053229932860E+07, 2.764982961502444E+08, 9.647782170716529E+07,
2461246.500000000, A.D. 2026-Jul-25 00:00:00.0000, -2.737882077910633E+07, 2.762578304949198E+08, 9.658287209494083E+07,
2461253.500000000, A.D. 2026-Aug-01 00:00:00.0000, -4.000487278111263E+07, 2.754893889189025E+08, 9.650329869228718E+07,
2461260.500000000, A.D. 2026-Aug-08 00:00:00.0000, -5.255510256658316E+07, 2.741981790590187E+08, 9.624056197676927E+07,
2461267.500000000, A.D. 2026-Aug-15 00:00:00.0000, -6.500638304406845E+07, 2.723902372504117E+08, 9.579641813643983E+07,
2461274.500000000, A.D. 2026-Aug-22 00:00:00.0000, -7.733606607223426E+07, 2.700723972448502E+08, 9.517290805249052E+07,
2461281.500000000, A.D. 2026-Aug-29 00:00:00.0000, -8.952200292798305E+07, 2.672522598326336E+08, 9.437234674388899E+07,
2461288.500000000, A.D. 2026-Sep-05 00:00:00.0000, -1.015425629816680E+08, 2.639381605720619E+08, 9.339731286726315E+07,
$$EOE